NORAD_CAT_ID,OBJECT_NAME,OBJECT_TYPE,EPOCH,MEAN_MOTION,ECCENTRICITY,INCLINATION,RA_OF_ASC_NODE,ARG_OF_PERICENTER,MEAN_ANOMALY,BSTAR,MEAN_MOTION_DOT,MEAN_MOTION_DDOT,TLE_LINE0,TLE_LINE1,TLE_LINE2,SEMIMAJOR_AXIS,PERIOD,APOGEE,PERIGEE,DECAYED
51991.0,STARLINK-3652,PAYLOAD,2022-07-19 22:00:00,15.08835716,0.0001859,53.2175,244.207,33.5805,266.0699,0.00012962,1.775e-05,0.0,0 STARLINK-3652,1 51991U 22025AM  22200.91667824  .00001775  00000-0  12962-3 0  9998,2 51991  53.2175 244.2070 0001859  33.5805 266.0699 15.08835716 21551,6917.893,95.438,541.045,538.472,0.0
51991.0,STARLINK-3652,PAYLOAD,2022-07-20 14:00:01,15.08836261,0.0002014,53.2177,241.2195,35.8814,286.9795,0.00043107,6.578e-05,0.0,0 STARLINK-3652,1 51991U 22025AM  22201.58334491  .00006578  00000-0  43107-3 0  9994,2 51991  53.2177 241.2195 0002014  35.8814 286.9795 15.08836261  1302,6917.892,95.438,541.15,538.364,0.0
51991.0,STARLINK-3652,PAYLOAD,2022-07-20 22:00:01,15.08806535,0.0001793,53.218,239.7214,38.5898,295.9346,0.0017204,0.00027173,0.0,0 STARLINK-3652,1 51991U 22025AM  22201.91668981  .00027173  00000-0  17204-2 0  9997,2 51991  53.2180 239.7214 0001793  38.5898 295.9346 15.08806535 21704,6917.983,95.44,541.0880000000002,538.607,0.0
51991.0,STARLINK-3652,PAYLOAD,2022-07-21 14:00:01,15.08812763,0.0002017,53.2179,236.7305,34.7884,322.8834,0.0021547,0.00034145,0.0,0 STARLINK-3652,1 51991U 22025AM  22202.58335648  .00034145  00000-0  21547-2 0  9994,2 51991  53.2179 236.7305 0002017  34.7884 322.8834 15.08812763  1309,6917.964,95.439,541.224,538.433,0.0
51991.0,STARLINK-3652,PAYLOAD,2022-07-21 22:00:00,15.08810054,0.0001803,53.2181,235.2325,39.5938,329.6014,0.0023826,0.00037804,0.0,0 STARLINK-3652,1 51991U 22025AM  22202.91667824  .00037804  00000-0  23826-2 0  9992,2 51991  53.2181 235.2325 0001803  39.5938 329.6014 15.08810054 21851,6917.972,95.439,541.0840000000002,538.59,0.0
51991.0,STARLINK-3652,PAYLOAD,2022-07-22 06:00:00,15.08852904,0.0001901,53.2182,233.7372,39.5261,341.2422,-0.0017945999999999,-0.00028746,0.0,0 STARLINK-3652,1 51991U 22025AM  22203.25001157 -.00028746  00000-0 -17946-2 0  9994,2 51991  53.2182 233.7372 0001901  39.5261 341.2422 15.08852904  1306,6917.840999999999,95.437,541.021,538.391,0.0
51991.0,STARLINK-3652,PAYLOAD,2022-07-22 12:00:00,15.08818503,0.0002048,53.218,232.616,36.9385,262.5351,0.0025412,0.00040364,0.0,0 STARLINK-3652,1 51991U 22025AM  22203.50001157  .00040364  00000-0  25412-2 0  9997,2 51991  53.2180 232.6160 0002048  36.9385 262.5351 15.08818503 21943,6917.946,95.439,541.2280000000002,538.394,0.0
51991.0,STARLINK-3652,PAYLOAD,2022-07-22 22:00:00,15.08819445,0.0001805,53.2177,230.7437,40.8449,3.123,0.0026825,0.00042639,0.0,0 STARLINK-3652,1 51991U 22025AM  22203.91667824  .00042639  00000-0  26825-2 0  9997,2 51991  53.2177 230.7437 0001805  40.8449   3.1230 15.08819445  1309,6917.943,95.439,541.057,538.56,0.0
51991.0,STARLINK-3652,PAYLOAD,2022-07-23 06:00:00,15.08862168,0.0001931,53.2177,229.2486,40.652,14.9019,-0.0019230999999999,-0.00030783,0.0,0 STARLINK-3652,1 51991U 22025AM  22204.25001157 -.00030783  00000-0 -19231-2 0  9998,2 51991  53.2177 229.2486 0001931  40.6520  14.9019 15.08862168 22054,6917.813,95.436,541.013,538.342,0.0
51991.0,STARLINK-3652,PAYLOAD,2022-07-23 14:00:01,15.08837295,0.0002044999999999,53.2171,227.7528,36.8682,30.3507,0.0011189,0.00017563,0.0,0 STARLINK-3652,1 51991U 22025AM  22204.58335648  .00017563  00000-0  11189-2 0  9992,2 51991  53.2171 227.7528 0002045  36.8682  30.3507 15.08837295  1303,6917.889,95.438,541.168,538.339,0.0
51991.0,STARLINK-3652,PAYLOAD,2022-07-23 22:00:00,15.08825566,0.0001838,53.217,226.2549,42.3578,36.4093,0.002675,0.00042525,0.0,0 STARLINK-3652,1 51991U 22025AM  22204.91667824  .00042525  00000-0  26750-2 0  9999,2 51991  53.2170 226.2549 0001838  42.3578  36.4093 15.08825566 22155,6917.925,95.438,541.061,538.518,0.0
51991.0,STARLINK-3652,PAYLOAD,2022-07-24 14:00:01,15.08856267,0.0002069,53.2164,223.2639,37.3562,64.6099,-0.0013574,-0.00021836,0.0,0 STARLINK-3652,1 51991U 22025AM  22205.58334491 -.00021836  00000-0 -13574-2 0  9998,2 51991  53.2164 223.2639 0002069  37.3562  64.6099 15.08856267 22251,6917.831,95.437,541.127,538.264,0.0
51991.0,STARLINK-3652,PAYLOAD,2022-07-24 22:00:00,15.08808064,0.0001828,53.2163,221.7659,40.977,72.6063,0.0019035999999999,0.00030111,0.0,0 STARLINK-3652,1 51991U 22025AM  22205.91667824  .00030111  00000-0  19036-2 0  9997,2 51991  53.2163 221.7659 0001828  40.9770  72.6063 15.08808064  1303,6917.978,95.44,541.1080000000002,538.578,0.0
51991.0,STARLINK-3652,PAYLOAD,2022-07-25 14:00:01,15.08826925,0.0002103,53.216,218.7748,36.8907,99.8384,0.00016755,2.378e-05,0.0,0 STARLINK-3652,1 51991U 22025AM  22206.58334491  .00002378  00000-0  16755-3 0  9992,2 51991  53.2160 218.7748 0002103  36.8907  99.8384 15.08826925  1301,6917.92,95.438,541.24,538.331,0.0
51991.0,STARLINK-3652,PAYLOAD,2022-07-25 22:00:00,15.08807742,0.0001936,53.216,217.2768,41.81399999999999,106.5016,0.0023606,0.00037448,0.0,0 STARLINK-3652,1 51991U 22025AM  22206.91667824  .00037448  00000-0  23606-2 0  9996,2 51991  53.2160 217.2768 0001936  41.8140 106.5016 15.08807742 22469,6917.979,95.44,541.183,538.505,0.0
51991.0,STARLINK-3652,PAYLOAD,2022-07-26 14:00:01,15.08835281,0.0002206,53.216,214.2857,38.2316,133.2361,-0.00042023,-6.969e-05,0.0,0 STARLINK-3652,1 51991U 22025AM  22207.58334491 -.00006969  00000-0 -42023-3 0  9992,2 51991  53.2160 214.2857 0002206  38.2316 133.2361 15.08835281 22561,6917.895,95.438,541.286,538.234,0.0
51991.0,STARLINK-3652,PAYLOAD,2022-07-26 22:00:00,15.08813598,0.0002058,53.2161,212.7877,42.9526,140.1072,0.0022430999999999,0.00035566,0.0,0 STARLINK-3652,1 51991U 22025AM  22207.91667824  .00035566  00000-0  22431-2 0  9991,2 51991  53.2161 212.7877 0002058  42.9526 140.1072 15.08813598  1309,6917.9609999999975,95.439,541.25,538.4019999999998,0.0
51991.0,STARLINK-3652,PAYLOAD,2022-07-27 14:00:01,15.08846513,0.0002305,53.2163,209.7964,39.8678,166.3611,-0.0010068,-0.00016279,0.0,0 STARLINK-3652,1 51991U 22025AM  22208.58334491 -.00016279  00000-0 -10068-2 0  9991,2 51991  53.2163 209.7964 0002305  39.8678 166.3611 15.08846513  1304,6917.86,95.437,541.32,538.131,0.0
51991.0,STARLINK-3652,PAYLOAD,2022-07-27 22:00:00,15.0882304,0.0002161,53.2166,208.2985,44.6151,173.2165,0.0022239,0.00035267,0.0,0 STARLINK-3652,1 51991U 22025AM  22208.91667824  .00035267  00000-0  22239-2 0  9996,2 51991  53.2166 208.2985 0002161  44.6151 173.2165 15.08823040 22768,6917.932,95.439,541.2919999999998,538.302,0.0
51991.0,STARLINK-3652,PAYLOAD,2022-07-28 14:00:01,15.0885845,0.000237,53.2168,205.3071,41.7059,199.3106,-0.0015244999999999,-0.00024482,0.0,0 STARLINK-3652,1 51991U 22025AM  22209.58334491 -.00024482  00000-0 -15245-2 0  9999,2 51991  53.2168 205.3071 0002370  41.7059 199.3106 15.08858450  1305,6917.824000000001,95.436,541.3290000000002,538.049,0.0
51991.0,STARLINK-3652,PAYLOAD,2022-07-28 22:00:00,15.08831383,0.0002233,53.2171,203.8093,46.5713,206.0561,0.0022129,0.00035098,0.0,0 STARLINK-3652,1 51991U 22025AM  22209.91667824  .00035098  00000-0  22129-2 0  9997,2 51991  53.2171 203.8093 0002233  46.5713 206.0561 15.08831383 22911,6917.906999999997,95.438,541.316,538.227,0.0
51991.0,STARLINK-3652,PAYLOAD,2022-07-29 14:00:01,15.08866549,0.0002391,53.2171,200.8179,43.2619,232.5653,-0.0020312,-0.00032494,0.0,0 STARLINK-3652,1 51991U 22025AM  22210.58334491 -.00032494  00000-0 -20312-2 0  9994,2 51991  53.2171 200.8179 0002391  43.2619 232.5653 15.08866549 23017,6917.799,95.436,541.318,538.01,0.0
51991.0,STARLINK-3652,PAYLOAD,2022-07-29 22:00:00,15.0884898,0.0002218999999999,53.2175,199.3202,47.7916,239.6503,-0.00033432,-5.607e-05,0.0,0 STARLINK-3652,1 51991U 22025AM  22210.91667824 -.00005607  00000-0 -33432-3 0  9994,2 51991  53.2175 199.3202 0002219  47.7916 239.6503 15.08848980  1307,6917.853,95.437,541.253,538.183,0.0
51991.0,STARLINK-3652,PAYLOAD,2022-07-30 14:00:01,15.08843744,0.000233,53.2173,196.3288,43.2667,267.3554,-0.0023414,-0.00037364,0.0,0 STARLINK-3652,1 51991U 22025AM  22211.58334491 -.00037364  00000-0 -23414-2 0  9992,2 51991  53.2173 196.3288 0002330  43.2667 267.3554 15.08843744 23169,6917.869000000002,95.437,541.346,538.122,0.0
51991.0,STARLINK-3652,PAYLOAD,2022-07-30 22:00:00,15.08815421,0.0002208,53.2176,194.8314,48.8292,273.38,0.0019524999999999,0.00030902,0.0,0 STARLINK-3652,1 51991U 22025AM  22211.91667824  .00030902  00000-0  19525-2 0  9995,2 51991  53.2176 194.8314 0002208  48.8292 273.3800 15.08815421  1308,6917.956,95.439,541.3480000000002,538.293,0.0
51991.0,STARLINK-3652,PAYLOAD,2022-07-31 06:00:02,15.08829458,0.0002411,53.2175,193.3369,45.7243,288.1291,-0.00054317,-8.92e-05,0.0,0 STARLINK-3652,1 51991U 22025AM  22212.25002315 -.00008920  00000-0 -54317-3 0  9997,2 51991  53.2175 193.3369 0002411  45.7243 288.1291 15.08829458 23261,6917.913000000001,95.438,541.446,538.11,0.0
51991.0,STARLINK-3652,PAYLOAD,2022-07-31 14:00:01,15.08846826,0.0002368,53.2172,191.84,45.7411,299.6232,-0.0024230999999999,-0.00038654,0.0,0 STARLINK-3652,1 51991U 22025AM  22212.58334491 -.00038654  00000-0 -24231-2 0  9994,2 51991  53.2172 191.8400 0002368  45.7411 299.6232 15.08846826  1306,6917.86,95.437,541.363,538.086,0.0
51991.0,STARLINK-3652,PAYLOAD,2022-07-31 22:00:00,15.08822116,0.0002275,53.2174,190.3428,51.2175,305.7365,0.0017249,0.00027257,0.0,0 STARLINK-3652,1 51991U 22025AM  22212.91667824  .00027257  00000-0  17249-2 0  9996,2 51991  53.2174 190.3428 0002275  51.2175 305.7365 15.08822116  1300,6917.935,95.439,541.374,538.226,0.0
51991.0,STARLINK-3652,PAYLOAD,2022-08-01 04:00:00,15.08840971,0.0002416,53.2173,189.222,48.4046,227.2376,-0.0013053,-0.00021004,0.0,0 STARLINK-3652,1 51991U 22025AM  22213.16667824 -.00021004  00000-0 -13053-2 0  9999,2 51991  53.2173 189.2220 0002416  48.4046 227.2376 15.08840971 23402,6917.877,95.437,541.414,538.071,0.0
